{
  "norad_id": 66203,
  "name": "STARLINK-35548",
  "history": [
    {
      "epoch": "2026-03-28T21:24:02.905056",
      "apogee_km": 476.48283123311194,
      "perigee_km": 473.9169419027803,
      "latitude_deg": -28.316072955344076,
      "longitude_deg": 165.90322784008458,
      "semi_major_axis_km": 6853.336886567946,
      "eccentricity": 0.0001872,
      "inclination_deg": 53.159,
      "raan_deg": 156.0589,
      "arg_perigee_deg": 84.4985,
      "mean_anomaly_deg": 275.623,
      "mean_motion_rev_day": 15.30205085
    }
  ]
}